     2.11           N: GPS NAV DATA                         RINEX VERSION / TYPE
teqc  2018Mar15                         20180319 14:17:34UTCPGM / RUN BY / DATE
Linux 2.6.32-573.12.1.x86_64|x86_64|gcc -static|Linux 64|=+ COMMENT
    1.1176D-08  7.4506D-09 -5.9605D-08 -5.9605D-08          ION ALPHA
    9.0112D+04  0.0000D+00 -1.9661D+05 -6.5536D+04          ION BETA
    1.862645149231D-09 8.881784197001D-15   589824      200 DELTA-UTC: A0,A1,T,W
                                                            END OF HEADER
 1 18  3 15 14  0  0.0-3.430852666497D-05-2.273736754432D-12 0.000000000000D+00
    5.700000000000D+01-5.371875000000D+01 4.643050544549D-09 1.286088476713D+00
   -2.905726432800D-06 7.445032475516D-03 2.676621079445D-06 5.153671257019D+03
    3.960000000000D+05-2.235174179077D-08-1.371454559639D+00 6.332993507385D-08
    9.700946123116D-01 3.326250000000D+02 6.114859091511D-01-8.446066098269D-09
   -2.067943280995D-10 1.000000000000D+00 1.992000000000D+03 0.000000000000D+00
    2.000000000000D+00 0.000000000000D+00 5.587935447693D-09 5.700000000000D+01
    3.932580000000D+05 4.000000000000D+00
11 18  3 15 14  0  0.0-7.373550906777D-04-2.273736754432D-13 0.000000000000D+00
    6.700000000000D+01 2.109375000000D+01 6.312762951916D-09 5.648635935674D-01
    9.238719940186D-07 1.673283986747D-02 1.560896635056D-06 5.153614295959D+03
    3.960000000000D+05-1.303851604462D-07-1.793782388911D+00-1.434236764908D-07
    9.041161379633D-01 3.210625000000D+02 1.744452801518D+00-9.516110669920D-09
    1.103617398666D-10 1.000000000000D+00 1.992000000000D+03 0.000000000000D+00
    2.000000000000D+00 0.000000000000D+00-1.210719347000D-08 6.700000000000D+01
    3.932580000000D+05 4.000000000000D+00
17 18  3 15 13 59 44.0-1.155249774456D-04 3.183231456205D-12 0.000000000000D+00
    1.400000000000D+01 9.718750000000D+01 3.949093067006D-09-2.948130434655D+00
    5.092471837997D-06 1.230603887234D-02 5.755573511124D-06 5.153777114868D+03
    3.959840000000D+05 1.266598701477D-07-2.374747947270D+00-3.166496753693D-08
    9.822582904519D-01 2.791250000000D+02-1.783566137077D+00-7.724250317459D-09
    4.321608583773D-10 1.000000000000D+00 1.992000000000D+03 0.000000000000D+00
    2.000000000000D+00 0.000000000000D+00-1.117587089539D-08 1.400000000000D+01
    3.932580000000D+05 4.000000000000D+00
22 18  3 15 14  0  0.0-3.239102661610D-04-1.307398633799D-11 0.000000000000D+00
    8.400000000000D+01-8.506250000000D+01 5.157714839526D-09 2.811812323818D+00
   -4.576519131660D-06 7.379745598882D-03 1.074373722076D-05 5.153573501587D+03
    3.960000000000D+05 1.266598701477D-07-3.852967952152D-01-5.774199962616D-08
    9.251543731017D-01 1.549375000000D+02-1.596556503078D+00-8.171768958406D-09
   -8.857511808063D-11 1.000000000000D+00 1.992000000000D+03 0.000000000000D+00
    2.000000000000D+00 0.000000000000D+00-1.769512891769D-08 8.400000000000D+01
    3.932820000000D+05 4.000000000000D+00
28 18  3 15 14  0  0.0 6.972728297114D-04 3.410605131648D-12 0.000000000000D+00
    8.300000000000D+01 2.062500000000D+01 3.502645899261D-09-1.941058704132D+00
    1.121312379837D-06 1.960883673746D-02 1.204200088978D-05 5.153681325912D+03
    3.960000000000D+05 3.110617399216D-07 2.897794640504D+00 3.576278686523D-07
    9.867924368030D-01 1.601250000000D+02-1.523699684894D+00-7.309947345791D-09
   -3.428714248282D-10 1.000000000000D+00 1.992000000000D+03 0.000000000000D+00
    4.000000000000D+00 0.000000000000D+00-1.117587089539D-08 8.300000000000D+01
    3.932580000000D+05 4.000000000000D+00
12 18  3 15 13 59 44.0 3.452138043940D-04-2.046363078989D-12 0.000000000000D+00
    1.600000000000D+01 2.621875000000D+01 3.639794469192D-09 4.381587402131D-03
    1.341104507446D-06 7.076660403982D-03 1.225620508194D-05 5.153634349823D+03
    3.959840000000D+05-7.450580596924D-09 2.874611303716D+00 1.378357410431D-07
    9.874866133754D-01 1.573437500000D+02 9.347585326964D-01-7.632103622036D-09
   -3.067984936744D-10 1.000000000000D+00 1.992000000000D+03 0.000000000000D+00
    2.000000000000D+00 0.000000000000D+00-1.257285475731D-08 1.600000000000D+01
    3.932580000000D+05 4.000000000000D+00
24 18  3 15 14  0  0.0-4.730094224215D-05-4.547473508865D-13 0.000000000000D+00
    1.250000000000D+02-2.537500000000D+01 5.486299954986D-09 1.523447815751D+00
   -1.208856701851D-06 6.882190005854D-03 4.736706614494D-06 5.153647125244D+03
    3.960000000000D+05-7.450580596924D-08 1.725157130028D+00 1.545995473862D-07
    9.419295727932D-01 2.795937500000D+02 5.375864224380D-01-8.638574117001D-09
   -4.064455015151D-10 1.000000000000D+00 1.992000000000D+03 0.000000000000D+00
    2.800000000000D+00 0.000000000000D+00 2.793967723846D-09 1.250000000000D+02
    3.932520000000D+05 4.000000000000D+00
10 18  3 15 14  0  0.0 1.703696325421D-04 3.751665644813D-12 0.000000000000D+00
    2.000000000000D+01-7.603125000000D+01 4.271249343251D-09-7.980328967705D-01
   -3.876164555550D-06 3.378753550351D-03 1.171231269836D-05 5.153675216675D+03
    3.960000000000D+05 6.146728992462D-08-3.319818971328D-01 7.450580596924D-09
    9.612831568220D-01 1.519687500000D+02-2.791019500502D+00-7.873899408087D-09
    2.500104139373D-12 1.000000000000D+00 1.992000000000D+03 0.000000000000D+00
    2.000000000000D+00 0.000000000000D+00 1.862645149231D-09 2.000000000000D+01
    3.932580000000D+05 4.000000000000D+00
32 18  3 15 14  0  0.0-5.282498896122D-04 2.273736754432D-12 0.000000000000D+00
    7.900000000000D+01 5.012500000000D+01 4.830915512736D-09-2.031879713066D+00
    2.684071660042D-06 1.821552519687D-03 8.244067430496D-06 5.153642677307D+03
    3.960000000000D+05 8.940696716309D-08 7.099279122843D-01-3.539025783539D-08
    9.574559539293D-01 2.183125000000D+02-2.662704638507D+00-8.159268437710D-09
    5.460941755858D-10 1.000000000000D+00 1.992000000000D+03 0.000000000000D+00
    2.000000000000D+00 0.000000000000D+00 4.656612873077D-10 7.900000000000D+01
    3.932580000000D+05 4.000000000000D+00
19 18  3 15 14  0  0.0-4.506832920015D-04 2.614797267597D-12 0.000000000000D+00
    9.000000000000D+01 8.665625000000D+01 4.118028675281D-09 8.640189768299D-02
    4.645437002182D-06 9.751086356118D-03 5.483627319336D-06 5.153702243805D+03
    3.960000000000D+05-1.508742570877D-07-2.327606436208D+00 1.955777406693D-07
    9.796841266334D-01 2.866250000000D+02 1.136614364071D+00-8.131052976708D-09
    4.125171829965D-10 1.000000000000D+00 1.992000000000D+03 0.000000000000D+00
    2.000000000000D+00 0.000000000000D+00-1.536682248116D-08 9.000000000000D+01
    3.932520000000D+05 4.000000000000D+00
